IRIDIUM 128 [+]         
1 42811U 17039J   17346.27206153  .00000083  00000-0  22350-4 0  9990
2 42811  87.5016 232.3517 0003210  65.6065 294.5467 14.35410948 24374
